[{"OBJECT_NAME":"STARLINK-4024","OBJECT_ID":"2022-052B","EPOCH":"2026-03-09T19:32:15.105408","MEAN_MOTION":15.08830158,"ECCENTRICITY":0.00012666,"INCLINATION":53.2165,"RA_OF_ASC_NODE":278.6679,"ARG_OF_PERICENTER":89.5333,"MEAN_ANOMALY":270.5804,"EPHEMERIS_TYPE":0,"CLASSIFICATION_TYPE":"U","NORAD_CAT_ID":52599,"ELEMENT_SET_NO":999,"REV_AT_EPOCH":21167,"BSTAR":9.2430891e-5,"MEAN_MOTION_DOT":1.183e-5,"MEAN_MOTION_DDOT":0},{"OBJECT_NAME":"FENGYUN 1C DEB","OBJECT_ID":"1999-025DVA","EPOCH":"2026-03-08T04:27:49.439232","MEAN_MOTION":15.15496966,"ECCENTRICITY":0.00338373,"INCLINATION":98.8203,"RA_OF_ASC_NODE":206.4896,"ARG_OF_PERICENTER":4.2711,"MEAN_ANOMALY":355.88,"EPHEMERIS_TYPE":0,"CLASSIFICATION_TYPE":"U","NORAD_CAT_ID":36225,"ELEMENT_SET_NO":999,"REV_AT_EPOCH":68062,"BSTAR":0.0036229129,"MEAN_MOTION_DOT":0.00070122,"MEAN_MOTION_DDOT":0}]
